0 FLOCK 2P 8
1 41613U 16040Q   22213.10262982  .00014435  00000-0  41157-3 0  9994
2 41613  97.2324 271.5159 0006770 307.8679  52.1952 15.36146042340063
0 FLOCK 2P 10
1 41612U 16040P   22213.60347891  .00009921  00000-0  25675-3 0  9992
2 41612  97.2352 273.3187 0005415 309.2940  50.7825 15.39253632340213
0 FLOCK 2P 4
1 41611U 16040N   22214.81269594  .00031125  00000-0  50252-3 0  9998
2 41611  97.2165 279.0348 0003769 266.8378  93.2445 15.52825991340778
0 FLOCK 2P 9
1 41610U 16040M   22214.12127841  .00005151  00000-0  14396-3 0  9998
2 41610  97.2266 271.5216 0006674 297.2480  62.8085 15.37111568340065
0 FLOCK 2P 2
1 41609U 16040L   22213.90636342  .00019151  00000-0  38212-3 0  9990
2 41609  97.2217 275.2335 0004399 272.1890  87.8856 15.46883519340437
0 FLOCK 2P 11
1 41608U 16040K   22214.55849997  .00061466  00000-0  78789-3 0  9992
2 41608  97.2074 279.2690 0004130 250.1730 109.9082 15.58963160340832
0 SWAYAM
1 41607U 16040J   22213.41819519  .00007341  00000-0  23174-3 0  9992
2 41607  97.2116 263.0042 0009268 328.3038  31.7645 15.33091971339667
0 FLOCK 2P 6
1 41606U 16040H   22214.11976649  .00017742  00000-0  35647-3 0  9991
2 41606  97.2179 274.2612 0004006 282.2755  77.8047 15.46699192340461
0 M3MSAT
1 41605U 16040G   22213.49704645  .00001694  00000-0  72771-4 0  9994
2 41605  97.2072 254.1469 0011215 359.4458   0.6765 15.23955833339197
0 BIROS
1 41604U 16040F   22213.55328602  .00001556  00000-0  65794-4 0  9999
2 41604  97.2079 256.2642 0010891 342.2680  17.8176 15.24609247339333
0 LAPAN A3
1 41603U 16040E   22214.82389161  .00000596  00000-0  29968-4 0  9992
2 41603  97.2028 249.8272 0013225   5.7446  80.0819 15.20780342339088
0 GHGSAT-D
1 41602U 16040D   22213.07909769  .00002896  00000-0  11131-3 0  9996
2 41602  97.2033 257.6297 0007572 348.7688  11.3382 15.27178640339477
0 SKYSAT C1
1 41601U 16040C   22213.89376828  .00003948  00000-0  10811-3 0  9992
2 41601  97.1528 288.1408 0001668 128.4451 231.6944 15.37899603340987
0 SATHYABAMASAT
1 41600U 16040B   22214.09244487  .00007632  00000-0  23335-3 0  9998
2 41600  97.2160 265.4606 0009186 323.2244  36.8368 15.34096737339892
0 CARTOSAT 2C
1 41599U 16040A   22213.19792009  .00001681  00000-0  82873-4 0  9994
2 41599  97.4842 272.4028 0014239  32.1618  53.0511 15.19237976338727
0 BREEZE-KM R/B
1 41580U 16034B   22214.38498058  .00000003  00000-0  19709-4 0  9991
2 41580  99.1474 348.4757 0211204 283.6646  74.1096 14.25105359320419
0 COSMOS 2517 (GEO-IK)
1 41579U 16034A   22214.50575067 -.00000008  00000-0  30947-4 0  9992
2 41579  99.2206 227.0607 0001490  91.9364 268.1973 13.85896483311675
0 NUSAT 2
1 41558U 16033C   22214.23379649  .00005991  00000-0  16502-3 0  9991
2 41558  97.4112 317.9988 0009861 193.7792 221.6971 15.37487057344686
0 NUSAT 1
1 41557U 16033B   22214.86447002  .00005941  00000-0  17369-3 0  9995
2 41557  97.3904 312.6753 0010102 203.7403 296.9596 15.35617448344502
0 ZY 3 2
1 41556U 16033A   22213.45346035  .00002229  00000-0  10297-3 0  9991
2 41556  97.5343 282.1857 0004853 134.3960 321.2496 15.21242462342749
0 NOAA 16 DEB
1 41540U 00055NQ  22213.37404127  .00000726  00000-0  45013-3 0  9993
2 41540  98.7798 264.1422 0036884 243.1120 116.6278 14.07918670323481
0 NOAA 16 DEB
1 41539U 00055NP  22214.52659159  .00001398  00000-0  64962-3 0  9996
2 41539  98.8004 309.5944 0025253 301.3410  58.5296 14.22088578335692
0 NOAA 16 DEB
1 41537U 00055NM  22213.47489582  .00000628  00000-0  34937-3 0  9992
2 41537  98.7427 287.3051 0004807  60.9201 299.2453 14.14599122336848
0 NOAA 16 DEB
1 41536U 00055NL  22213.66544242  .00000990  00000-0  49796-3 0  9998
2 41536  98.7746 297.2802 0014031 355.8591   4.2466 14.18676625337604
0 NOAA 16 DEB
1 41535U 00055NK  22214.39895347  .00007621  00000-0  20693-2 0  9995
2 41535  98.7343  14.9589 0012002 105.5055 254.7463 14.47805866328852
0 NOAA 16 DEB
1 41534U 00055NJ  22213.64410954  .00001294  00000-0  74091-3 0  9990
2 41534  98.8590 280.0179 0022882 293.0006  66.8752 14.11125069322222
0 NOAA 16 DEB
1 41533U 00055NH  22213.25015961  .00003237  00000-0  93548-3 0  9992
2 41533  98.8360  13.2708 0091330 143.3973 217.3503 14.42868386329352
0 NOAA 16 DEB
1 41531U 00055NF  22213.56655084  .00000859  00000-0  52677-3 0  9995
2 41531  98.7489 257.1566 0032666 291.5613  68.2077 14.08128510323269
0 NOAA 16 DEB
1 41529U 00055ND  22214.96320525  .00000765  00000-0  49295-3 0  9994
2 41529  98.8011 258.5602 0039380 321.5290  38.3072 14.05599087326296
0 NOAA 16 DEB
1 41528U 00055NC  22214.43807479  .00002074  00000-0  97947-3 0  9995
2 41528  98.7908 286.9198 0026073  69.3484 291.0485 14.20690379329114
0 NOAA 16 DEB
1 41527U 00055NB  22213.19883098  .00001451  00000-0  58639-3 0  9990
2 41527  99.0552  20.2729 0047557 297.9741  61.6630 14.28897203332071
0 NOAA 16 DEB
1 41526U 00055NA  22213.78232573  .00001451  00000-0  67224-3 0  9990
2 41526  98.9676 338.4880 0029674  22.1780 338.0673 14.22182871329669
0 NOAA 16 DEB
1 41525U 00055MZ  22213.48631000  .00000947  00000-0  50693-3 0  9995
2 41525  98.7495 282.0051 0011431 303.8197  56.1888 14.15489469328369
0 NOAA 16 DEB
1 41523U 00055MX  22213.17512215  .00000910  00000-0  50556-3 0  9993
2 41523  98.8033 288.5646 0012585 167.4631 192.6856 14.13584712323401
0 NOAA 16 DEB
1 41522U 00055MW  22214.77457034  .00002979  00000-0  12927-2 0  9992
2 41522  98.8765 324.7975 0025578 268.4795  91.3453 14.24789894325735
0 NOAA 16 DEB
1 41521U 00055MV  22213.47024309  .00002543  00000-0  10922-2 0  9992
2 41521  98.8051 301.3172 0059142  33.0703 327.4152 14.24685374325413
0 NOAA 16 DEB
1 41520U 00055MU  22214.51340184  .00002381  00000-0  12443-2 0  9999
2 41520  98.9089 299.4604 0059406 167.1888 193.0810 14.14449088323579
0 NOAA 16 DEB
1 41519U 00055MT  22213.54041037  .00002521  00000-0  11945-2 0  9996
2 41519  98.8552 302.4070 0014682 263.6201  96.3303 14.20463209325113
0 NOAA 16 DEB
1 41518U 00055MS  22214.23025665  .00002418  00000-0  10705-2 0  9999
2 41518  98.8389 314.0313 0027913  17.2384 342.9736 14.23895811325802
0 NOAA 16 DEB
1 41517U 00055MR  22213.58672330  .00003412  00000-0  12012-2 0  9990
2 41517  98.8263 341.0456 0055127 198.6738 161.2424 14.34661390327808
0 NOAA 16 DEB
1 41516U 00055MQ  22213.64897542  .00000985  00000-0  49949-3 0  9992
2 41516  98.7462 290.1978 0013908 315.2333  44.7719 14.18273026324850
0 NOAA 16 DEB
1 41515U 00055MP  22213.34168968  .00003155  00000-0  13225-2 0  9990
2 41515  98.9934 359.5920 0013873  39.0027 321.2150 14.26678468325686
0 NOAA 16 DEB
1 41514U 00055MN  22213.28159672  .00001987  00000-0  85958-3 0  9998
2 41514  98.8867 329.6994 0040417 256.5556 103.1116 14.25094642326309
0 NOAA 16 DEB
1 41513U 00055MM  22214.84457857  .00001346  00000-0  87910-3 0  9995
2 41513  98.7540 235.1190 0063486 333.1006  26.6875 14.02947667325542
0 NOAA 16 DEB
1 41512U 00055ML  22213.80201936  .00001543  00000-0  65838-3 0  9998
2 41512  98.9235 341.0835 0041861 268.4295  91.2089 14.26130432330732
0 NOAA 16 DEB
1 41511U 00055MK  22213.38865398  .00000914  00000-0  53204-3 0  9993
2 41511  98.7825 275.1927 0028515 200.7354 159.2663 14.10882421327485
0 NOAA 16 DEB
1 41510U 00055MJ  22213.68029754  .00000884  00000-0  48090-3 0  9996
2 41510  98.8161 293.7270 0031320 129.3202 231.0755 14.14540224328287
0 NOAA 16 DEB
1 41509U 00055MH  22213.18070774  .00000977  00000-0  51727-3 0  9991
2 41509  98.8088 295.7247 0022763 107.6080 252.7583 14.15910769328356
0 NOAA 16 DEB
1 41508U 00055MG  22213.72365252  .00000886  00000-0  45168-3 0  9999
2 41508  98.8379 307.4151 0032695  62.5004 297.9488 14.17999399324981
0 NOAA 16 DEB
1 41507U 00055MF  22213.53627672  .00001635  00000-0  75551-3 0  9996
2 41507  98.8894 323.1393 0017945 323.4804  36.5148 14.22252650329649
0 NOAA 16 DEB
1 41506U 00055ME  22214.80535174  .00003521  00000-0  12716-2 0  9990
2 41506  98.8034 334.4170 0056800 190.8271 169.1694 14.33317622341049
0 NOAA 16 DEB
1 41505U 00055MD  22213.49007070  .00001228  00000-0  60251-3 0  9992
2 41505  98.8258 305.9198 0043833 270.8783  88.7371 14.19131082335531
0 NOAA 16 DEB
1 41504U 00055MC  22213.00194184  .00000988  00000-0  57904-3 0  9994
2 41504  98.8318 277.3712 0034959 214.8302 145.0580 14.10260592330786
0 NOAA 16 DEB
1 41503U 00055MB  22214.47746075  .00001557  00000-0  69004-3 0  9994
2 41503  98.7647 307.9753 0033879 307.7913  52.0199 14.24269697332396
0 NOAA 16 DEB
1 41502U 00055MA  22214.94288185  .00000814  00000-0  46578-3 0  9994
2 41502  98.7486 273.8395 0010648 212.1750 147.8773 14.12257850330929
0 NOAA 16 DEB
1 41501U 00055LZ  22213.50101852  .00002453  00000-0  91162-3 0  9999
2 41501  98.6903 308.8468 0056389 191.9318 168.0533 14.32147884333803
0 NOAA 16 DEB
1 41500U 00055LY  22213.36219010  .00001241  00000-0  54141-3 0  9998
2 41500  99.0148 357.6885 0043355 349.1038  10.9197 14.25320765332137
0 NOAA 16 DEB
1 41499U 00055LX  22214.44318146  .00001234  00000-0  61325-3 0  9999
2 41499  98.7434 283.4762 0043085  73.8305 286.7606 14.18405826330776
0 NOAA 16 DEB
1 41498U 00055LW  22213.53586244  .00000708  00000-0  37301-3 0  9995
2 41498  98.9143 319.6338 0020410  66.0373 294.2935 14.17150187330732
0 NOAA 16 DEB
1 41496U 00055LU  22213.09188705  .00001021  00000-0  50590-3 0  9998
2 41496  98.7665 297.1267 0019810   9.4766 350.6780 14.19373195331247
0 NOAA 16 DEB
1 41495U 00055LT  22214.32707170  .00000644  00000-0  41728-3 0  9990
2 41495  98.7469 245.1713 0040512 303.8308  55.9007 14.05800791328204
0 NOAA 16 DEB
1 41494U 00055LS  22213.80843190  .00001704  00000-0  74007-3 0  9998
2 41494  98.9101 335.6289 0033986 289.8552  69.8965 14.25214309330422
0 NOAA 16 DEB
1 41493U 00055LR  22213.54032508  .00001405  00000-0  63509-3 0  9994
2 41493  98.8541 321.4273 0033500 324.9901  34.9074 14.23414139329978
0 NOAA 16 DEB
1 41492U 00055LQ  22213.12008199  .00001435  00000-0  11682-2 0  9993
2 41492  98.8634 176.5183 0125164 156.2620 204.4380 13.87816504324566
0 NOAA 16 DEB
1 41491U 00055LP  22213.81310128  .00001359  00000-0  94656-3 0  9994
2 41491  98.8369 226.2600 0111775  90.0392 271.3579 13.97322665326703
